OBJECT_NAME,OBJECT_ID,EPOCH,MEAN_MOTION,ECCENTRICITY,INCLINATION,RA_OF_ASC_NODE,ARG_OF_PERICENTER,MEAN_ANOMALY,EPHEMERIS_TYPE,CLASSIFICATION_TYPE,NORAD_CAT_ID,ELEMENT_SET_NO,REV_AT_EPOCH,BSTAR,MEAN_MOTION_DOT,MEAN_MOTION_DDOT
SYRACUSE 4B,2023-093B,2026-07-02T13:56:56.232960,1.00269092,.00003305,0.0245,46.0579,136.4765,300.8598,0,U,57214,999,712,0,0,0
JUPITER 3 (ECHOSTAR 24),2023-108A,2026-07-01T11:42:45.650304,1.00271938,.00010669,0.0238,29.1846,71.7526,259.0748,0,U,57479,999,1079,0,0,0
GALAXY 37 (G-37),2023-112A,2026-07-02T13:22:44.511168,1.00271630,.00020976,0.0185,349.2946,113.4451,251.5387,0,U,57493,999,1069,0,.59E-6,0
LUDI TANCE-4 01A,2023-120A,2026-07-01T19:49:50.102976,1.00266926,.00012811,15.0947,193.6070,17.4858,95.7535,0,U,57624,999,1069,0,-.162E-5,0
TJS-10,2023-169A,2026-07-02T18:00:47.329920,1.00269643,.0004215,2.5821,80.3140,104.6482,98.4495,0,U,58204,999,969,0,-.239E-5,0
ZHONGXING-6E,2023-172A,2026-07-02T14:31:54.527808,1.00271726,.00025601,0.0190,282.9066,176.7073,154.5333,0,U,58253,999,981,0,-.351E-5,0
YAOGAN-41,2023-197A,2026-07-02T14:34:01.824384,1.00273338,.00143735,3.1015,313.3630,196.1792,112.8176,0,U,58582,999,947,0,-.349E-5,0
OVZON-3,2024-003A,2026-07-02T15:38:20.191776,1.00268275,.00003187,0.0137,70.5266,347.2359,157.2100,0,U,58698,999,760,0,0,0
INSAT-3DS,2024-033A,2026-07-02T09:14:20.851584,1.00269425,.00014311,0.0716,96.8706,355.3676,48.8097,0,U,58990,999,4722,0,-.144E-5,0
MERAH PUTIH 2,2024-035A,2026-07-02T15:07:34.481280,1.00266723,.00012568,0.0147,16.8667,72.0960,171.5509,0,U,58995,999,874,0,0,0
TJS-11,2024-037A,2026-06-29T15:34:09.330240,1.00270550,.0003431,4.1831,327.2324,121.1853,175.5098,0,U,59020,999,870,0,-.349E-5,0
HULIANWAN GAOGUI-01 (HG-01),2024-040A,2026-07-02T14:08:03.920064,1.00275611,.00027016,0.0710,331.5789,74.0304,120.6462,0,U,59069,999,748,0,.167E-5,0
EUTELSAT 36D,2024-059A,2026-07-02T10:43:51.576672,1.00269928,.00003237,0.0221,42.8942,85.8777,348.5233,0,U,59346,999,830,0,0,0
PAKSAT-MM1,2024-104A,2026-07-02T07:19:06.732192,1.00275148,.00026538,0.0225,196.9907,240.7457,350.5844,0,U,59915,999,767,0,.164E-5,0
ASTRA 1P (SES-24),2024-115A,2026-07-02T14:04:26.768352,1.00271796,.00004551,0.0610,341.5582,185.3082,344.0873,0,U,60086,999,735,0,.131E-5,0
GOES 19,2024-119A,2026-07-02T13:37:28.099776,1.00271173,.0000538,0.0126,77.9489,80.1000,251.7333,0,U,60133,999,711,0,-.238E-5,0
ZHONGXING-3A,2024-122A,2026-07-01T14:30:39.981888,1.00276406,.0001711,0.0347,112.7027,13.4089,112.7870,0,U,60179,999,745,0,-.304E-5,0
TURKSAT 6A,2024-127A,2026-07-01T21:04:20.061408,1.00269513,.0002759,0.0150,215.4043,293.2996,129.3062,0,U,60233,999,716,0,0,0
HULIANWAN GAOGUI-02 (HG-02),2024-135A,2026-07-01T14:45:06.014880,1.00268199,.00069873,0.0441,356.1189,15.2077,282.6697,0,U,60327,999,764,0,-.164E-5,0
ZHONGXING-4A,2024-151A,2026-07-02T14:32:39.455808,1.00275148,.00003482,1.2766,270.6162,174.7482,171.6412,0,U,60606,999,690,0,-.351E-5,0
HULIANWAN GAOGUI-03 (HG-03),2024-181A,2026-07-01T01:41:10.376736,1.00270233,.00015046,0.0471,0.6800,86.3247,140.2966,0,U,61503,999,696,0,-.231E-5,0
DSN-3 (KIRAMEKI-3),2024-198A,2026-07-02T11:39:54.997344,1.00271913,.00009817,0.0189,25.5502,91.4866,122.5336,0,U,61733,999,607,0,-.239E-5,0
KOREASAT 6A,2024-206A,2026-07-02T14:32:02.016096,1.00269115,.00008444,0.0159,90.2924,358.3723,165.9891,0,U,61910,999,599,0,-.351E-5,0
OPTUS-X (ADS-01),2024-212A,2026-07-02T06:57:38.597184,1.00274824,.00023897,0.0252,290.8875,212.1220,38.1453,0,U,62006,999,591,0,-.132E-5,0
GSAT-N2 (GSAT-20),2024-214A,2026-07-02T14:13:14.199744,1.00272898,.00021451,0.0698,97.9876,355.2496,108.6540,0,U,62028,999,605,0,-.9E-7,0
SXM-9,2024-234A,2026-07-02T06:44:02.594112,1.00271383,.0004692,0.0144,342.1476,337.2087,336.8182,0,U,62259,999,572,0,-.195E-5,0
TJS-12,2024-246A,2026-07-02T14:40:39.344736,1.00273291,.00022439,0.6386,300.6066,105.0589,241.6982,0,U,62374,999,571,0,-.219E-5,0
NUVIEW ALPHA,2024-252B,2026-07-02T10:09:54.830592,1.00271006,.00010931,0.0500,33.1616,43.1718,273.4976,0,U,62455,999,397,0,-.205E-5,0
AGILA,2024-252C,2026-07-02T11:16:56.409312,1.00271322,.00010787,0.0617,123.9764,358.1807,119.7459,0,U,62456,999,531,0,-.171E-5,0
NUVIEW BRAVO,2024-252D,2026-07-02T10:09:54.830592,1.00271680,.00016918,0.0714,158.3856,340.3431,211.1034,0,U,62457,999,394,0,-.204E-5,0
THURAYA-4,2025-001A,2026-07-02T03:55:38.930592,1.00271793,.00003738,0.0200,63.3452,94.5080,225.5636,0,U,62483,999,432,0,.15E-5,0
SHIJIAN-25 (SJ-25),2025-002A,2026-07-02T18:21:01.463328,1.00272141,.005163,5.1479,61.0664,174.7980,87.5189,0,U,62485,999,551,0,-.341E-5,0
