SYRACUSE 4B             
1 57214U 23093B   26183.58120640  .00000000  00000+0  00000+0 0  9990
2 57214   0.0245  46.0579 0000330 136.4765 300.8598  1.00269092  7123
JUPITER 3 (ECHOSTAR 24) 
1 57479U 23108A   26182.48802836  .00000000  00000+0  00000+0 0  9992
2 57479   0.0238  29.1846 0001066  71.7526 259.0748  1.00271938 10791
GALAXY 37 (G-37)        
1 57493U 23112A   26183.55745962  .00000059  00000+0  00000+0 0  9992
2 57493   0.0185 349.2946 0002097 113.4451 251.5387  1.00271630 10695
LUDI TANCE-4 01A        
1 57624U 23120A   26182.82627434 -.00000162  00000+0  00000+0 0  9995
2 57624  15.0947 193.6070 0001281  17.4858  95.7535  1.00266926 10695
TJS-10                  
1 58204U 23169A   26183.75054780 -.00000239  00000+0  00000+0 0  9999
2 58204   2.5821  80.3140 0004215 104.6482  98.4495  1.00269643  9696
ZHONGXING-6E            
1 58253U 23172A   26183.60549222 -.00000351  00000+0  00000+0 0  9996
2 58253   0.0190 282.9066 0002560 176.7073 154.5333  1.00271726  9810
YAOGAN-41               
1 58582U 23197A   26183.60696556 -.00000349  00000+0  00000+0 0  9998
2 58582   3.1015 313.3630 0014373 196.1792 112.8176  1.00273338  9475
OVZON-3                 
1 58698U 24003A   26183.65162259  .00000000  00000+0  00000+0 0  9999
2 58698   0.0137  70.5266 0000318 347.2359 157.2100  1.00268275  7600
INSAT-3DS               
1 58990U 24033A   26183.38496356 -.00000144  00000+0  00000+0 0  9995
2 58990   0.0716  96.8706 0001431 355.3676  48.8097  1.00269425 47227
MERAH PUTIH 2           
1 58995U 24035A   26183.63026020  .00000000  00000+0  00000+0 0  9997
2 58995   0.0147  16.8667 0001256  72.0960 171.5509  1.00266723  8746
TJS-11                  
1 59020U 24037A   26180.64871910 -.00000349  00000+0  00000+0 0  9990
2 59020   4.1831 327.2324 0003431 121.1853 175.5098  1.00270550  8700
HULIANWAN GAOGUI-01 (H*)
1 59069U 24040A   26183.58893426  .00000167  00000+0  00000+0 0  9996
2 59069   0.0710 331.5789 0002701  74.0304 120.6462  1.00275611  7486
EUTELSAT 36D            
1 59346U 24059A   26183.44712473  .00000000  00000+0  00000+0 0  9997
2 59346   0.0221  42.8942 0000323  85.8777 348.5233  1.00269928  8309
PAKSAT-MM1              
1 59915U 24104A   26183.30493903  .00000164  00000+0  00000+0 0  9990
2 59915   0.0225 196.9907 0002653 240.7457 350.5844  1.00275148  7673
ASTRA 1P (SES-24)       
1 60086U 24115A   26183.58642093  .00000131  00000+0  00000+0 0  9993
2 60086   0.0610 341.5582 0000455 185.3082 344.0873  1.00271796  7355
GOES 19                 
1 60133U 24119A   26183.56768634 -.00000238  00000+0  00000+0 0  9997
2 60133   0.0126  77.9489 0000538  80.1000 251.7333  1.00271173  7118
ZHONGXING-3A            
1 60179U 24122A   26182.60462942 -.00000304  00000+0  00000+0 0  9992
2 60179   0.0347 112.7027 0001711  13.4089 112.7870  1.00276406  7452
TURKSAT 6A              
1 60233U 24127A   26182.87800997  .00000000  00000+0  00000+0 0  9995
2 60233   0.0150 215.4043 0002759 293.2996 129.3062  1.00269513  7168
HULIANWAN GAOGUI-02 (H*)
1 60327U 24135A   26182.61465295 -.00000164  00000+0  00000+0 0  9990
2 60327   0.0441 356.1189 0006987  15.2077 282.6697  1.00268199  7647
ZHONGXING-4A            
1 60606U 24151A   26183.60601222 -.00000351  00000+0  00000+0 0  9998
2 60606   1.2766 270.6162 0000348 174.7482 171.6412  1.00275148  6909
HULIANWAN GAOGUI-03 (H*)
1 61503U 24181A   26182.07025899 -.00000231  00000+0  00000+0 0  9995
2 61503   0.0471   0.6800 0001504  86.3247 140.2966  1.00270233  6960
DSN-3 (KIRAMEKI-3)      
1 61733U 24198A   26183.48605321 -.00000239  00000+0  00000+0 0  9996
2 61733   0.0189  25.5502 0000981  91.4866 122.5336  1.00271913  6070
KOREASAT 6A             
1 61910U 24206A   26183.60557889 -.00000351  00000+0  00000+0 0  9997
2 61910   0.0159  90.2924 0000844 358.3723 165.9891  1.00269115  5994
OPTUS-X (ADS-01)        
1 62006U 24212A   26183.29003006 -.00000132  00000+0  00000+0 0  9990
2 62006   0.0252 290.8875 0002389 212.1220  38.1453  1.00274824  5913
GSAT-N2 (GSAT-20)       
1 62028U 24214A   26183.59252546 -.00000009  00000+0  00000+0 0  9997
2 62028   0.0698  97.9876 0002145 355.2496 108.6540  1.00272898  6057
SXM-9                   
1 62259U 24234A   26183.28058558 -.00000195  00000+0  00000+0 0  9994
2 62259   0.0144 342.1476 0004692 337.2087 336.8182  1.00271383  5723
TJS-12                  
1 62374U 24246A   26183.61156649 -.00000219  00000+0  00000+0 0  9999
2 62374   0.6386 300.6066 0002243 105.0589 241.6982  1.00273291  5717
NUVIEW ALPHA            
1 62455U 24252B   26183.42355128 -.00000205  00000+0  00000+0 0  9993
2 62455   0.0500  33.1616 0001093  43.1718 273.4976  1.00271006  3970
AGILA                   
1 62456U 24252C   26183.47009733 -.00000171  00000+0  00000+0 0  9999
2 62456   0.0617 123.9764 0001078 358.1807 119.7459  1.00271322  5312
NUVIEW BRAVO            
1 62457U 24252D   26183.42355128 -.00000204  00000+0  00000+0 0  9994
2 62457   0.0714 158.3856 0001691 340.3431 211.1034  1.00271680  3942
THURAYA-4               
1 62483U 25001A   26183.16364503  .00000150  00000+0  00000+0 0  9993
2 62483   0.0200  63.3452 0000373  94.5080 225.5636  1.00271793  4327
SHIJIAN-25 (SJ-25)      
1 62485U 25002A   26183.76460027 -.00000341  00000+0  00000+0 0  9993
2 62485   5.1479  61.0664 0051630 174.7980  87.5189  1.00272141  5514
